start=new Date('2022-03-06T00:00:00.000Z').valueOf();
sats=[{"PERIAPSIS":"545.865","RCS_SIZE":"LARGE","MEAN_MOTION_DOT":"0.00007118","OBJECT_NAME":"STARLINK-2338","CLASSIFICATION_TYPE":"U","GP_ID":"198018145","COUNTRY_CODE":"US","APOAPSIS":"548.482","DECAY_DATE":null,"ARG_OF_PERICENTER":"54.4248","MEAN_MOTION":"15.06413089","EPOCH":"2022-03-05T21:50:55.106592","TLE_LINE2":"2 47793  53.0561 327.2725 0001889  54.4248 305.6917 15.06413089 56091","RA_OF_ASC_NODE":"327.2725","EPHEMERIS_TYPE":"0","MEAN_ANOMALY":"305.6917","INCLINATION":"53.0561","FILE":"3346512","REF_FRAME":"TEME","LAUNCH_DATE":"2021-03-11","NORAD_CAT_ID":"47793","MEAN_MOTION_DDOT":"0.0000000000000","BSTAR":"0.00049609000000","MEAN_ELEMENT_THEORY":"SGP4","REV_AT_EPOCH":"5609","CENTER_NAME":"EARTH","TIME_SYSTEM":"UTC","OBJECT_ID":"2021-018G","ECCENTRICITY":"0.00018890","ELEMENT_SET_NO":"999","TLE_LINE1":"1 47793U 21018G   22064.91036003  .00007118  00000-0  49609-3 0  9996","SITE":"AFETR","SEMIMAJOR_AXIS":"6925.308","OBJECT_TYPE":"PAYLOAD","PERIOD":"95.591"},{"PERIOD":"95.592","OBJECT_TYPE":"PAYLOAD","SITE":"AFETR","SEMIMAJOR_AXIS":"6925.338","TLE_LINE1":"1 47794U 21018H   22064.91403116  .00002567  00000-0  19117-3 0  9994","ELEMENT_SET_NO":"999","ECCENTRICITY":"0.00017740","OBJECT_ID":"2021-018H","CENTER_NAME":"EARTH","TIME_SYSTEM":"UTC","MEAN_ELEMENT_THEORY":"SGP4","BSTAR":"0.00019117000000","REV_AT_EPOCH":"5610","MEAN_MOTION_DDOT":"0.0000000000000","LAUNCH_DATE":"2021-03-11","NORAD_CAT_ID":"47794","REF_FRAME":"TEME","FILE":"3346512","INCLINATION":"53.0553","MEAN_ANOMALY":"317.3690","RA_OF_ASC_NODE":"327.2653","TLE_LINE2":"2 47794  53.0553 327.2653 0001774  42.7437 317.3690 15.06403518 56102","EPHEMERIS_TYPE":"0","EPOCH":"2022-03-05T21:56:12.292224","ARG_OF_PERICENTER":"42.7437","MEAN_MOTION":"15.06403518","DECAY_DATE":null,"GP_ID":"198018396","APOAPSIS":"548.431","COUNTRY_CODE":"US","CLASSIFICATION_TYPE":"U","RCS_SIZE":"LARGE","MEAN_MOTION_DOT":"0.00002567","OBJECT_NAME":"STARLINK-2341","PERIAPSIS":"545.974"},{"GP_ID":"198017644","APOAPSIS":"548.245","COUNTRY_CODE":"US","CLASSIFICATION_TYPE":"U","ARG_OF_PERICENTER":"69.8017","MEAN_MOTION":"15.06427254","DECAY_DATE":null,"PERIAPSIS":"546.015","RCS_SIZE":"LARGE","MEAN_MOTION_DOT":"0.00014843","OBJECT_NAME":"STARLINK-2347","NORAD_CAT_ID":"47795","LAUNCH_DATE":"2021-03-11","FILE":"3346512","REF_FRAME":"TEME","MEAN_MOTION_DDOT":"0.0000000000000","EPHEMERIS_TYPE":"0","TLE_LINE2":"2 47795  53.0541 327.3120 0001610  69.8017 290.3145 15.06427254 56156","RA_OF_ASC_NODE":"327.3120","EPOCH":"2022-03-05T21:40:17.065920","MEAN_ANOMALY":"290.3145","INCLINATION":"53.0541","ECCENTRICITY":"0.00016100","OBJECT_ID":"2021-018J","TIME_SYSTEM":"UTC","CENTER_NAME":"EARTH","MEAN_ELEMENT_THEORY":"SGP4","BSTAR":"0.00101250000000","REV_AT_EPOCH":"5615","SEMIMAJOR_AXIS":"6925.265","SITE":"AFETR","PERIOD":"95.590","OBJECT_TYPE":"PAYLOAD","ELEMENT_SET_NO":"999","TLE_LINE1":"1 47795U 21018J   22064.90297530  .00014843  00000-0  10125-2 0  9994"},{"OBJECT_TYPE":"PAYLOAD","PERIOD":"95.592","SEMIMAJOR_AXIS":"6925.318","SITE":"AFETR","TLE_LINE1":"1 47796U 21018K   22064.91772517  .00005479  00000-0  38633-3 0  9999","ELEMENT_SET_NO":"999","OBJECT_ID":"2021-018K","ECCENTRICITY":"0.00017490","BSTAR":"0.00038633000000","MEAN_ELEMENT_THEORY":"SGP4","REV_AT_EPOCH":"5610","TIME_SYSTEM":"UTC","CENTER_NAME":"EARTH","MEAN_MOTION_DDOT":"0.0000000000000","REF_FRAME":"TEME","FILE":"3346512","LAUNCH_DATE":"2021-03-11","NORAD_CAT_ID":"47796","INCLINATION":"53.0551","MEAN_ANOMALY":"304.3459","EPOCH":"2022-03-05T22:01:31.454688","EPHEMERIS_TYPE":"0","TLE_LINE2":"2 47796  53.0551 327.2453 0001749  55.7695 304.3459 15.06410032 56100","RA_OF_ASC_NODE":"327.2453","DECAY_DATE":null,"MEAN_MOTION":"15.06410032","ARG_OF_PERICENTER":"55.7695","CLASSIFICATION_TYPE":"U","COUNTRY_CODE":"US","GP_ID":"198017894","APOAPSIS":"548.394","RCS_SIZE":"LARGE","OBJECT_NAME":"STARLINK-2373","MEAN_MOTION_DOT":"0.00005479","PERIAPSIS":"545.972"},{"TIME_SYSTEM":"UTC","CENTER_NAME":"EARTH","BSTAR":"0.00038701000000","MEAN_ELEMENT_THEORY":"SGP4","REV_AT_EPOCH":"5573","ECCENTRICITY":"0.00017450","OBJECT_ID":"2021-018L","ELEMENT_SET_NO":"999","TLE_LINE1":"1 47797U 21018L   22064.82142642  .00005489  00000-0  38701-3 0  9997","SEMIMAJOR_AXIS":"6925.311","SITE":"AFETR","PERIOD":"95.591","OBJECT_TYPE":"PAYLOAD","PERIAPSIS":"545.967","RCS_SIZE":"LARGE","MEAN_MOTION_DOT":"0.00005489","OBJECT_NAME":"STARLINK-2377","COUNTRY_CODE":"US","GP_ID":"198018645","APOAPSIS":"548.384","CLASSIFICATION_TYPE":"U","ARG_OF_PERICENTER":"56.6628","MEAN_MOTION":"15.06412369","DECAY_DATE":null,"RA_OF_ASC_NODE":"352.6585","TLE_LINE2":"2 47797  53.0561 352.6585 0001745  56.6628 303.4528 15.06412369 55732","EPHEMERIS_TYPE":"0","EPOCH":"2022-03-05T19:42:51.242688","MEAN_ANOMALY":"303.4528","INCLINATION":"53.0561","LAUNCH_DATE":"2021-03-11","NORAD_CAT_ID":"47797","FILE":"3346512","REF_FRAME":"TEME","MEAN_MOTION_DDOT":"0.0000000000000"},{"MEAN_MOTION":"15.06410699","ARG_OF_PERICENTER":"56.4672","DECAY_DATE":null,"GP_ID":"198018896","APOAPSIS":"548.503","COUNTRY_CODE":"US","CLASSIFICATION_TYPE":"U","MEAN_MOTION_DOT":"0.00005361","RCS_SIZE":"LARGE","OBJECT_NAME":"STARLINK-2379","PERIAPSIS":"545.859","MEAN_MOTION_DDOT":"0.0000000000000","NORAD_CAT_ID":"47798","LAUNCH_DATE":"2021-03-11","REF_FRAME":"TEME","FILE":"3346512","MEAN_ANOMALY":"303.6499","INCLINATION":"53.0562","TLE_LINE2":"2 47798  53.0562 327.1903 0001909  56.4672 303.6499 15.06410699 56109","EPHEMERIS_TYPE":"0","RA_OF_ASC_NODE":"327.1903","EPOCH":"2022-03-05T22:17:26.642112","OBJECT_ID":"2021-018M","ECCENTRICITY":"0.00019090","TIME_SYSTEM":"UTC","CENTER_NAME":"EARTH","BSTAR":"0.00037844000000","MEAN_ELEMENT_THEORY":"SGP4","REV_AT_EPOCH":"5610","PERIOD":"95.591","OBJECT_TYPE":"PAYLOAD","SEMIMAJOR_AXIS":"6925.316","SITE":"AFETR","TLE_LINE1":"1 47798U 21018M   22064.92878058  .00005361  00000-0  37844-3 0  9992","ELEMENT_SET_NO":"999"},{"ECCENTRICITY":"0.00019550","OBJECT_ID":"2021-018N","MEAN_ELEMENT_THEORY":"SGP4","BSTAR":"0.00020244000000","REV_AT_EPOCH":"5609","CENTER_NAME":"EARTH","TIME_SYSTEM":"UTC","SITE":"AFETR","SEMIMAJOR_AXIS":"6925.298","OBJECT_TYPE":"PAYLOAD","PERIOD":"95.591","ELEMENT_SET_NO":"999","TLE_LINE1":"1 47799U 21018N   22064.92509369  .00002736  00000-0  20244-3 0  9998","CLASSIFICATION_TYPE":"U","APOAPSIS":"548.517","GP_ID":"198017145","COUNTRY_CODE":"US","DECAY_DATE":null,"ARG_OF_PERICENTER":"67.8475","MEAN_MOTION":"15.06416387","PERIAPSIS":"545.809","RCS_SIZE":"LARGE","MEAN_MOTION_DOT":"0.00002736","OBJECT_NAME":"STARLINK-2380","FILE":"3346512","REF_FRAME":"TEME","NORAD_CAT_ID":"47799","LAUNCH_DATE":"2021-03-11","MEAN_MOTION_DDOT":"0.0000000000000","EPOCH":"2022-03-05T22:12:08.094816","TLE_LINE2":"2 47799  53.0540 327.2152 0001955  67.8475 292.2721 15.06416387 56090","RA_OF_ASC_NODE":"327.2152","EPHEMERIS_TYPE":"0","INCLINATION":"53.0540","MEAN_ANOMALY":"292.2721"},{"RA_OF_ASC_NODE":"327.1131","TLE_LINE2":"2 47800  53.0543 327.1131 0001928  63.4401 296.6786 15.06431416 56104","EPHEMERIS_TYPE":"0","EPOCH":"2022-03-05T22:43:59.287008","INCLINATION":"53.0543","MEAN_ANOMALY":"296.6786","LAUNCH_DATE":"2021-03-11","NORAD_CAT_ID":"47800","FILE":"3346512","REF_FRAME":"TEME","MEAN_MOTION_DDOT":"0.0000000000000","PERIAPSIS":"545.782","OBJECT_NAME":"STARLINK-2381","RCS_SIZE":"LARGE","MEAN_MOTION_DOT":"0.00018868","APOAPSIS":"548.452","GP_ID":"198017395","COUNTRY_CODE":"US","CLASSIFICATION_TYPE":"U","MEAN_MOTION":"15.06431416","ARG_OF_PERICENTER":"63.4401","DECAY_DATE":null,"ELEMENT_SET_NO":"999","TLE_LINE1":"1 47800U 21018P   22064.94721397  .00018868  00000-0  12811-2 0  9993","SITE":"AFETR","SEMIMAJOR_AXIS":"6925.252","PERIOD":"95.590","OBJECT_TYPE":"PAYLOAD","CENTER_NAME":"EARTH","TIME_SYSTEM":"UTC","MEAN_ELEMENT_THEORY":"SGP4","BSTAR":"0.00128110000000","REV_AT_EPOCH":"5610","ECCENTRICITY":"0.00019280","OBJECT_ID":"2021-018P"},{"TIME_SYSTEM":"UTC","CENTER_NAME":"EARTH","BSTAR":"0.00011997000000","MEAN_ELEMENT_THEORY":"SGP4","REV_AT_EPOCH":"5603","OBJECT_ID":"2021-018Q","ECCENTRICITY":"0.00017480","TLE_LINE1":"1 47801U 21018Q   22064.91541422  .00001506  00000-0  11997-3 0  9996","ELEMENT_SET_NO":"999","PERIOD":"95.591","OBJECT_TYPE":"PAYLOAD","SEMIMAJOR_AXIS":"6925.316","SITE":"AFETR","RCS_SIZE":"LARGE","MEAN_MOTION_DOT":"0.00001506","OBJECT_NAME":"STARLINK-2382","PERIAPSIS":"545.971","MEAN_MOTION":"15.06410601","ARG_OF_PERICENTER":"63.6042","DECAY_DATE":null,"APOAPSIS":"548.392","GP_ID":"198018146","COUNTRY_CODE":"US","CLASSIFICATION_TYPE":"U","INCLINATION":"53.0494","MEAN_ANOMALY":"296.5126","RA_OF_ASC_NODE":"332.3644","TLE_LINE2":"2 47801  53.0494 332.3644 0001748  63.6042 296.5126 15.06410601 56032","EPHEMERIS_TYPE":"0","EPOCH":"2022-03-05T21:58:11.788608","MEAN_MOTION_DDOT":"0.0000000000000","NORAD_CAT_ID":"47801","LAUNCH_DATE":"2021-03-11","FILE":"3346512","REF_FRAME":"TEME"},{"PERIOD":"95.591","OBJECT_TYPE":"PAYLOAD","SITE":"AFETR","SEMIMAJOR_AXIS":"6925.309","TLE_LINE1":"1 47802U 21018R   22064.82879656  .00002354  00000-0  17679-3 0  9995","ELEMENT_SET_NO":"999","OBJECT_ID":"2021-018R","ECCENTRICITY":"0.00013970","CENTER_NAME":"EARTH","TIME_SYSTEM":"UTC","BSTAR":"0.00017679000000","REV_AT_EPOCH":"5574","MEAN_ELEMENT_THEORY":"SGP4","MEAN_MOTION_DDOT":"0.0000000000000","NORAD_CAT_ID":"47802","LAUNCH_DATE":"2021-03-11","REF_FRAME":"TEME","FILE":"3346512","INCLINATION":"53.0530","MEAN_ANOMALY":"287.2514","RA_OF_ASC_NODE":"352.6312","TLE_LINE2":"2 47802  53.0530 352.6312 0001397  72.8628 287.2514 15.06412965 55743","EPHEMERIS_TYPE":"0","EPOCH":"2022-03-05T19:53:28.022784","ARG_OF_PERICENTER":"72.8628","MEAN_MOTION":"15.06412965","DECAY_DATE":null,"GP_ID":"198018397","COUNTRY_CODE":"US","APOAPSIS":"548.141","CLASSIFICATION_TYPE":"U","OBJECT_NAME":"STARLINK-2383","RCS_SIZE":"LARGE","MEAN_MOTION_DOT":"0.00002354","PERIAPSIS":"546.206"}];
